{"type": "FeatureCollection", "features": [ {"type": "Feature", "properties": {"norad_id": 38755, "name": "SPOT 6", "group": "resource", "lat": 11.296330741109813, "lon": 47.05459780453494, "alt_km": 699.0044246579446, "timestamp": "2025-12-09T20:37:08.938595+00:00", "meta": {"OBJECT_NAME": "SPOT 6", "OBJECT_ID": "2012-047A", "EPOCH": "2025-12-09T15:37:40.095264", "MEAN_MOTION": 14.58599738, "ECCENTRICITY": 0.00010805, "INCLINATION": 98.1572, "RA_OF_ASC_NODE": 48.4923, "ARG_OF_PERICENTER": 95.187, "MEAN_ANOMALY": 264.9453, "EPHEMERIS_TYPE": 0, "CLASSIFICATION_TYPE": "U", "NORAD_CAT_ID": 38755, "ELEMENT_SET_NO": 999, "REV_AT_EPOCH": 70542, "BSTAR": 0.00020431536, "MEAN_MOTION_DOT": 9.05e-06, "MEAN_MOTION_DDOT": 0}, "tle": {"line1": "1 38755U 12047A   25343.65115851  .00000905  00000+0  20432-3 0  9998", "line2": "2 38755  98.1572  48.4923 0001080  95.1870 264.9453 14.58599738705421"}}, "geometry": {"type": "Point", "coordinates": [47.05459780453494, 11.296330741109813]}}, {"type": "Feature", "properties": {"norad_id": 39019, "name": "PLEIADES 1B", "group": "resource", "lat": -81.792533858237, "lon": 142.26114475288804, "alt_km": 706.0763777642906, "timestamp": "2025-12-09T20:37:08.938605+00:00", "meta": {"OBJECT_NAME": "PLEIADES 1B", "OBJECT_ID": "2012-068A", "EPOCH": "2025-12-09T14:26:33.965664", "MEAN_MOTION": 14.58549133, "ECCENTRICITY": 0.00012457, "INCLINATION": 98.1794, "RA_OF_ASC_NODE": 56.3031, "ARG_OF_PERICENTER": 81.2042, "MEAN_ANOMALY": 278.9298, "EPHEMERIS_TYPE": 0, "CLASSIFICATION_TYPE": "U", "NORAD_CAT_ID": 39019, "ELEMENT_SET_NO": 999, "REV_AT_EPOCH": 69321, "BSTAR": 0.0002088753, "MEAN_MOTION_DOT": 9.25e-06, "MEAN_MOTION_DDOT": 0}, "tle": {"line1": "1 39019U 12068A   25343.60178201  .00000925  00000+0  20888-3 0  9995", "line2": "2 39019  98.1794  56.3031 0001245  81.2042 278.9298 14.58549133693218"}}, "geometry": {"type": "Point", "coordinates": [142.26114475288804, -81.792533858237]}}, {"type": "Feature", "properties": {"norad_id": 39030, "name": "GOKTURK 2", "group": "resource", "lat": -46.78667624334073, "lon": -166.07823519225374, "alt_km": 651.6101715888444, "timestamp": "2025-12-09T20:37:08.938616+00:00", "meta": {"OBJECT_NAME": "GOKTURK 2", "OBJECT_ID": "2012-073A", "EPOCH": "2025-12-09T14:19:19.930944", "MEAN_MOTION": 14.75284555, "ECCENTRICITY": 9.203e-05, "INCLINATION": 97.689, "RA_OF_ASC_NODE": 185.4046, "ARG_OF_PERICENTER": 102.0956, "MEAN_ANOMALY": 258.0357, "EPHEMERIS_TYPE": 0, "CLASSIFICATION_TYPE": "U", "NORAD_CAT_ID": 39030, "ELEMENT_SET_NO": 999, "REV_AT_EPOCH": 69655, "BSTAR": 0.00016578195, "MEAN_MOTION_DOT": 1.075e-05, "MEAN_MOTION_DDOT": 0}, "tle": {"line1": "1 39030U 12073A   25343.59675846  .00001075  00000+0  16578-3 0  9997", "line2": "2 39030  97.6890 185.4046 0000920 102.0956 258.0357 14.75284555696555"}}, "geometry": {"type": "Point", "coordinates": [-166.07823519225374, -46.78667624334073]}}, {"type": "Feature", "properties": {"norad_id": 39084, "name": "LANDSAT 8", "group": "resource", "lat": 80.09647085709719, "lon": -72.26589850386995, "alt_km": 694.3342461184748, "timestamp": "2025-12-09T20:37:08.938626+00:00", "meta": {"OBJECT_NAME": "LANDSAT 8", "OBJECT_ID": "2013-008A", "EPOCH": "2025-12-09T15:14:17.373984", "MEAN_MOTION": 14.57109735, "ECCENTRICITY": 0.00011204, "INCLINATION": 98.2075, "RA_OF_ASC_NODE": 51.7542, "ARG_OF_PERICENTER": 87.4694, "MEAN_ANOMALY": 272.6633, "EPHEMERIS_TYPE": 0, "CLASSIFICATION_TYPE": "U", "NORAD_CAT_ID": 39084, "ELEMENT_SET_NO": 999, "REV_AT_EPOCH": 67029, "BSTAR": 0.00018184084, "MEAN_MOTION_DOT": 7.74e-06, "MEAN_MOTION_DDOT": 0}, "tle": {"line1": "1 39084U 13008A   25343.63492331  .00000774  00000+0  18184-3 0  9996", "line2": "2 39084  98.2075  51.7542 0001120  87.4694 272.6633 14.57109735670298"}}, "geometry": {"type": "Point", "coordinates": [-72.26589850386995, 80.09647085709719]}}, {"type": "Feature", "properties": {"norad_id": 39086, "name": "SARAL", "group": "resource", "lat": -26.432696507436642, "lon": 172.11619502035222, "alt_km": 789.7463614068356, "timestamp": "2025-12-09T20:37:08.938636+00:00", "meta": {"OBJECT_NAME": "SARAL", "OBJECT_ID": "2013-009A", "EPOCH": "2025-12-09T14:02:22.446528", "MEAN_MOTION": 14.32755519, "ECCENTRICITY": 0.00028042, "INCLINATION": 98.5504, "RA_OF_ASC_NODE": 167.5566, "ARG_OF_PERICENTER": 114.7939, "MEAN_ANOMALY": 245.3537, "EPHEMERIS_TYPE": 0, "CLASSIFICATION_TYPE": "U", "NORAD_CAT_ID": 39086, "ELEMENT_SET_NO": 999, "REV_AT_EPOCH": 66845, "BSTAR": 0.00010570712, "MEAN_MOTION_DOT": 2.44e-06, "MEAN_MOTION_DDOT": 0}, "tle": {"line1": "1 39086U 13009A   25343.58498202  .00000244  00000+0  10571-3 0  9990", "line2": "2 39086  98.5504 167.5566 0002804 114.7939 245.3537 14.32755519668453"}}, "geometry": {"type": "Point", "coordinates": [172.11619502035222, -26.432696507436642]}}, {"type": "Feature", "properties": {"norad_id": 39150, "name": "GAOFEN-1", "group": "resource", "lat": 17.427257500012498, "lon": 52.06064095794429, "alt_km": 649.5562513657242, "timestamp": "2025-12-09T20:37:08.938647+00:00", "meta": {"OBJECT_NAME": "GAOFEN-1", "OBJECT_ID": "2013-018A", "EPOCH": "2025-12-09T15:39:36.614304", "MEAN_MOTION": 14.76527469, "ECCENTRICITY": 0.00179701, "INCLINATION": 97.9327, "RA_OF_ASC_NODE": 54.3663, "ARG_OF_PERICENTER": 152.418, "MEAN_ANOMALY": 207.7987, "EPHEMERIS_TYPE": 0, "CLASSIFICATION_TYPE": "U", "NORAD_CAT_ID": 39150, "ELEMENT_SET_NO": 999, "REV_AT_EPOCH": 68027, "BSTAR": 0.00024809524, "MEAN_MOTION_DOT": 1.683e-05, "MEAN_MOTION_DDOT": 0}, "tle": {"line1": "1 39150U 13018A   25343.65250711  .00001683  00000+0  24810-3 0  9990", "line2": "2 39150  97.9327  54.3663 0017970 152.4180 207.7987 14.76527469680273"}}, "geometry": {"type": "Point", "coordinates": [52.06064095794429, 17.427257500012498]}}, {"type": "Feature", "properties": {"norad_id": 39160, "name": "VNREDSAT 1", "group": "resource", "lat": -20.51585786326726, "lon": -143.7577755620953, "alt_km": 683.0848341150395, "timestamp": "2025-12-09T20:37:08.938657+00:00", "meta": {"OBJECT_NAME": "VNREDSAT 1", "OBJECT_ID": "2013-021B", "EPOCH": "2025-12-09T14:47:18.360672", "MEAN_MOTION": 14.64917007, "ECCENTRICITY": 0.00013319, "INCLINATION": 97.9372, "RA_OF_ASC_NODE": 39.0004, "ARG_OF_PERICENTER": 78.7949, "MEAN_ANOMALY": 281.3405, "EPHEMERIS_TYPE": 0, "CLASSIFICATION_TYPE": "U", "NORAD_CAT_ID": 39160, "ELEMENT_SET_NO": 999, "REV_AT_EPOCH": 67253, "BSTAR": 0.000272299, "MEAN_MOTION_DOT": 1.411e-05, "MEAN_MOTION_DDOT": 0}, "tle": {"line1": "1 39160U 13021B   25343.61618473  .00001411  00000+0  27230-3 0  9992", "line2": "2 39160  97.9372  39.0004 0001331  78.7949 281.3405 14.64917007672531"}}, "geometry": {"type": "Point", "coordinates": [-143.7577755620953, -20.51585786326726]}}, {"type": "Feature", "properties": {"norad_id": 39227, "name": "ARIRANG-5 (KOMPSAT-5)", "group": "resource", "lat": -48.7435714179854, "lon": -20.567410780732505, "alt_km": 562.6212779662383, "timestamp": "2025-12-09T20:37:08.938667+00:00", "meta": {"OBJECT_NAME": "ARIRANG-5 (KOMPSAT-5)", "OBJECT_ID": "2013-042A", "EPOCH": "2025-12-09T14:48:53.143200", "MEAN_MOTION": 15.04483003, "ECCENTRICITY": 0.00039064, "INCLINATION": 97.6143, "RA_OF_ASC_NODE": 167.9665, "ARG_OF_PERICENTER": 63.55, "MEAN_ANOMALY": 296.6127, "EPHEMERIS_TYPE": 0, "CLASSIFICATION_TYPE": "U", "NORAD_CAT_ID": 39227, "ELEMENT_SET_NO": 999, "REV_AT_EPOCH": 67535, "BSTAR": 0.00010509689, "MEAN_MOTION_DOT": 1.41e-05, "MEAN_MOTION_DDOT": 0}, "tle": {"line1": "1 39227U 13042A   25343.61728175  .00001410  00000+0  10510-3 0  9992", "line2": "2 39227  97.6143 167.9665 0003906  63.5500 296.6127 15.04483003675359"}}, "geometry": {"type": "Point", "coordinates": [-20.567410780732505, -48.7435714179854]}}, {"type": "Feature", "properties": {"norad_id": 39418, "name": "SKYSAT-A", "group": "resource", "lat": 11.108158619322205, "lon": -144.38062170851637, "alt_km": 530.1244404566787, "timestamp": "2025-12-09T20:37:08.938678+00:00", "meta": {"OBJECT_NAME": "SKYSAT-A", "OBJECT_ID": "2013-066C", "EPOCH": "2025-12-09T13:31:05.608704", "MEAN_MOTION": 15.11566359, "ECCENTRICITY": 0.0020703, "INCLINATION": 97.4109, "RA_OF_ASC_NODE": 33.8681, "ARG_OF_PERICENTER": 248.505, "MEAN_ANOMALY": 111.3974, "EPHEMERIS_TYPE": 0, "CLASSIFICATION_TYPE": "U", "NORAD_CAT_ID": 39418, "ELEMENT_SET_NO": 999, "REV_AT_EPOCH": 65982, "BSTAR": 0.0003728932, "MEAN_MOTION_DOT": 6.295e-05, "MEAN_MOTION_DDOT": 0}, "tle": {"line1": "1 39418U 13066C   25343.56325936  .00006295  00000+0  37289-3 0  9990", "line2": "2 39418  97.4109  33.8681 0020703 248.5050 111.3974 15.11566359659820"}}, "geometry": {"type": "Point", "coordinates": [-144.38062170851637, 11.108158619322205]}}, {"type": "Feature", "properties": {"norad_id": 39419, "name": "DUBAISAT-2", "group": "resource", "lat": -15.33569656604887, "lon": -23.589875032296703, "alt_km": 538.7906766328215, "timestamp": "2025-12-09T20:37:08.938688+00:00", "meta": {"OBJECT_NAME": "DUBAISAT-2", "OBJECT_ID": "2013-066D", "EPOCH": "2025-12-09T14:19:07.204224", "MEAN_MOTION": 15.08306086, "ECCENTRICITY": 0.00109864, "INCLINATION": 97.4449, "RA_OF_ASC_NODE": 334.1006, "ARG_OF_PERICENTER": 332.4224, "MEAN_ANOMALY": 27.6421, "EPHEMERIS_TYPE": 0, "CLASSIFICATION_TYPE": "U", "NORAD_CAT_ID": 39419, "ELEMENT_SET_NO": 999, "REV_AT_EPOCH": 65779, "BSTAR": 0.00040352325, "MEAN_MOTION_DOT": 6.208e-05, "MEAN_MOTION_DDOT": 0}, "tle": {"line1": "1 39419U 13066D   25343.59661116  .00006208  00000+0  40352-3 0  9996", "line2": "2 39419  97.4449 334.1006 0010986 332.4224  27.6421 15.08306086657799"}}, "geometry": {"type": "Point", "coordinates": [-23.589875032296703, -15.33569656604887]}}]}